[{"COMMENT":"GENERATED VIA SPACETRACK.ORG API","ORIGINATOR":"18 SPCS","NORAD_CAT_ID":"43477","OBJECT_NAME":"GRACE-FO 2","OBJECT_TYPE":"PAYLOAD","CLASSIFICATION_TYPE":"U","INTLDES":"18047B","EPOCH":"2022-12-29 12:20:11","EPOCH_MICROSECONDS":"263200","MEAN_MOTION":"15.24753259","ECCENTRICITY":"0.0012992","INCLINATION":"88.9893","RA_OF_ASC_NODE":"12.1083","ARG_OF_PERICENTER":"339.178","MEAN_ANOMALY":"20.8937","EPHEMERIS_TYPE":"0","ELEMENT_SET_NO":"999","REV_AT_EPOCH":"25613","BSTAR":"0.000098828","MEAN_MOTION_DOT":"0.00002481","MEAN_MOTION_DDOT":"0","FILE":"3725790","TLE_LINE0":"0 GRACE-FO 2","TLE_LINE1":"1 43477U 18047B   22363.51401925  .00002481  00000-0  98828-4 0  9992","TLE_LINE2":"2 43477  88.9893  12.1083 0012992 339.1780  20.8937 15.24753259256130","OBJECT_ID":"2018-047B","OBJECT_NUMBER":"43477","SEMIMAJOR_AXIS":"6869.663","PERIOD":"94.442","APOGEE":"500.454","PERIGEE":"482.603","DECAYED":"0"},{"COMMENT":"GENERATED VIA SPACETRACK.ORG API","ORIGINATOR":"18 SPCS","NORAD_CAT_ID":"43477","OBJECT_NAME":"GRACE-FO 2","OBJECT_TYPE":"PAYLOAD","CLASSIFICATION_TYPE":"U","INTLDES":"18047B","EPOCH":"2022-12-29 18:38:13","EPOCH_MICROSECONDS":"23168","MEAN_MOTION":"15.2475459","ECCENTRICITY":"0.0012947","INCLINATION":"88.9893","RA_OF_ASC_NODE":"12.0727","ARG_OF_PERICENTER":"338.0919","MEAN_ANOMALY":"21.9773","EPHEMERIS_TYPE":"0","ELEMENT_SET_NO":"999","REV_AT_EPOCH":"25617","BSTAR":"0.00010149","MEAN_MOTION_DOT":"0.00002547","MEAN_MOTION_DDOT":"0","FILE":"3725872","TLE_LINE0":"0 GRACE-FO 2","TLE_LINE1":"1 43477U 18047B   22363.77653962  .00002547  00000-0  10149-3 0  9992","TLE_LINE2":"2 43477  88.9893  12.0727 0012947 338.0919  21.9773 15.24754590256179","OBJECT_ID":"2018-047B","OBJECT_NUMBER":"43477","SEMIMAJOR_AXIS":"6869.659","PERIOD":"94.441","APOGEE":"500.419","PERIGEE":"482.630","DECAYED":"0"},{"COMMENT":"GENERATED VIA SPACETRACK.ORG API","ORIGINATOR":"18 SPCS","NORAD_CAT_ID":"43477","OBJECT_NAME":"GRACE-FO 2","OBJECT_TYPE":"PAYLOAD","CLASSIFICATION_TYPE":"U","INTLDES":"18047B","EPOCH":"2022-12-30 11:57:47","EPOCH_MICROSECONDS":"727648","MEAN_MOTION":"15.24758707","ECCENTRICITY":"0.0012813","INCLINATION":"88.9893","RA_OF_ASC_NODE":"11.9749","ARG_OF_PERICENTER":"335.0391","MEAN_ANOMALY":"25.0235","EPHEMERIS_TYPE":"0","ELEMENT_SET_NO":"999","REV_AT_EPOCH":"25628","BSTAR":"0.00010672","MEAN_MOTION_DOT":"0.00002677","MEAN_MOTION_DDOT":"0","FILE":"3726810","TLE_LINE0":"0 GRACE-FO 2","TLE_LINE1":"1 43477U 18047B   22364.49846907  .00002677  00000-0  10672-3 0  9990","TLE_LINE2":"2 43477  88.9893  11.9749 0012813 335.0391  25.0235 15.24758707256288","OBJECT_ID":"2018-047B","OBJECT_NUMBER":"43477","SEMIMAJOR_AXIS":"6869.647","PERIOD":"94.441","APOGEE":"500.314","PERIGEE":"482.710","DECAYED":"0"},{"COMMENT":"GENERATED VIA SPACETRACK.ORG API","ORIGINATOR":"18 SPCS","NORAD_CAT_ID":"43477","OBJECT_NAME":"GRACE-FO 2","OBJECT_TYPE":"PAYLOAD","CLASSIFICATION_TYPE":"U","INTLDES":"18047B","EPOCH":"2022-12-31 02:08:21","EPOCH_MICROSECONDS":"445440","MEAN_MOTION":"15.24763266","ECCENTRICITY":"0.0012699","INCLINATION":"88.9892","RA_OF_ASC_NODE":"11.895","ARG_OF_PERICENTER":"332.4969","MEAN_ANOMALY":"27.5606","EPHEMERIS_TYPE":"0","ELEMENT_SET_NO":"999","REV_AT_EPOCH":"25637","BSTAR":"0.00012464","MEAN_MOTION_DOT":"0.00003121","MEAN_MOTION_DDOT":"0","FILE":"3727417","TLE_LINE0":"0 GRACE-FO 2","TLE_LINE1":"1 43477U 18047B   22365.08913710  .00003121  00000-0  12464-3 0  9999","TLE_LINE2":"2 43477  88.9892  11.8950 0012699 332.4969  27.5606 15.24763266256379","OBJECT_ID":"2018-047B","OBJECT_NUMBER":"43477","SEMIMAJOR_AXIS":"6869.633","PERIOD":"94.441","APOGEE":"500.222","PERIGEE":"482.775","DECAYED":"0"},{"COMMENT":"GENERATED VIA SPACETRACK.ORG API","ORIGINATOR":"18 SPCS","NORAD_CAT_ID":"43477","OBJECT_NAME":"GRACE-FO 2","OBJECT_TYPE":"PAYLOAD","CLASSIFICATION_TYPE":"U","INTLDES":"18047B","EPOCH":"2022-12-31 13:09:54","EPOCH_MICROSECONDS":"274176","MEAN_MOTION":"15.2476482","ECCENTRICITY":"0.0012609","INCLINATION":"88.9892","RA_OF_ASC_NODE":"11.8327","ARG_OF_PERICENTER":"330.5273","MEAN_ANOMALY":"29.5263","EPHEMERIS_TYPE":"0","ELEMENT_SET_NO":"999","REV_AT_EPOCH":"25644","BSTAR":"0.00011362","MEAN_MOTION_DOT":"0.00002848","MEAN_MOTION_DDOT":"0","FILE":"3727988","TLE_LINE0":"0 GRACE-FO 2","TLE_LINE1":"1 43477U 18047B   22365.54854484  .00002848  00000-0  11362-3 0  9993","TLE_LINE2":"2 43477  88.9892  11.8327 0012609 330.5273  29.5263 15.24764820256441","OBJECT_ID":"2018-047B","OBJECT_NUMBER":"43477","SEMIMAJOR_AXIS":"6869.629","PERIOD":"94.441","APOGEE":"500.156","PERIGEE":"482.832","DECAYED":"0"},{"COMMENT":"GENERATED VIA SPACETRACK.ORG API","ORIGINATOR":"18 SPCS","NORAD_CAT_ID":"43477","OBJECT_NAME":"GRACE-FO 2","OBJECT_TYPE":"PAYLOAD","CLASSIFICATION_TYPE":"U","INTLDES":"18047B","EPOCH":"2022-12-31 19:27:55","EPOCH_MICROSECONDS":"867392","MEAN_MOTION":"15.24766088","ECCENTRICITY":"0.0012556","INCLINATION":"88.9891","RA_OF_ASC_NODE":"11.7971","ARG_OF_PERICENTER":"329.4089","MEAN_ANOMALY":"30.6426","EPHEMERIS_TYPE":"0","ELEMENT_SET_NO":"999","REV_AT_EPOCH":"25648","BSTAR":"0.00011016","MEAN_MOTION_DOT":"0.00002762","MEAN_MOTION_DDOT":"0","FILE":"3728081","TLE_LINE0":"0 GRACE-FO 2","TLE_LINE1":"1 43477U 18047B   22365.81106328  .00002762  00000-0  11016-3 0  9991","TLE_LINE2":"2 43477  88.9891  11.7971 0012556 329.4089  30.6426 15.24766088256483","OBJECT_ID":"2018-047B","OBJECT_NUMBER":"43477","SEMIMAJOR_AXIS":"6869.625","PERIOD":"94.441","APOGEE":"500.115","PERIGEE":"482.864","DECAYED":"0"},{"COMMENT":"GENERATED VIA SPACETRACK.ORG API","ORIGINATOR":"18 SPCS","NORAD_CAT_ID":"43477","OBJECT_NAME":"GRACE-FO 2","OBJECT_TYPE":"PAYLOAD","CLASSIFICATION_TYPE":"U","INTLDES":"18047B","EPOCH":"2023-01-01 04:54:58","EPOCH_MICROSECONDS":"198464","MEAN_MOTION":"15.24768314","ECCENTRICITY":"0.0012484","INCLINATION":"88.9891","RA_OF_ASC_NODE":"11.7438","ARG_OF_PERICENTER":"327.6858","MEAN_ANOMALY":"32.3624","EPHEMERIS_TYPE":"0","ELEMENT_SET_NO":"999","REV_AT_EPOCH":"25654","BSTAR":"0.00010959","MEAN_MOTION_DOT":"0.00002748","MEAN_MOTION_DDOT":"0","FILE":"3728216","TLE_LINE0":"0 GRACE-FO 2","TLE_LINE1":"1 43477U 18047B   23001.20484026  .00002748  00000-0  10959-3 0  9995","TLE_LINE2":"2 43477  88.9891  11.7438 0012484 327.6858  32.3624 15.24768314256545","OBJECT_ID":"2018-047B","OBJECT_NUMBER":"43477","SEMIMAJOR_AXIS":"6869.618","PERIOD":"94.441","APOGEE":"500.059","PERIGEE":"482.907","DECAYED":"0"},{"COMMENT":"GENERATED VIA SPACETRACK.ORG API","ORIGINATOR":"18 SPCS","NORAD_CAT_ID":"43477","OBJECT_NAME":"GRACE-FO 2","OBJECT_TYPE":"PAYLOAD","CLASSIFICATION_TYPE":"U","INTLDES":"18047B","EPOCH":"2023-01-01 14:22:00","EPOCH_MICROSECONDS":"494112","MEAN_MOTION":"15.24770496","ECCENTRICITY":"0.001241","INCLINATION":"88.9891","RA_OF_ASC_NODE":"11.6904","ARG_OF_PERICENTER":"325.9972","MEAN_ANOMALY":"34.0479","EPHEMERIS_TYPE":"0","ELEMENT_SET_NO":"999","REV_AT_EPOCH":"25660","BSTAR":"0.0001093","MEAN_MOTION_DOT":"0.00002741","MEAN_MOTION_DDOT":"0","FILE":"3728759","TLE_LINE0":"0 GRACE-FO 2","TLE_LINE1":"1 43477U 18047B   23001.59861683  .00002741  00000-0  10930-3 0  9997","TLE_LINE2":"2 43477  88.9891  11.6904 0012410 325.9972  34.0479 15.24770496256607","OBJECT_ID":"2018-047B","OBJECT_NUMBER":"43477","SEMIMAJOR_AXIS":"6869.612","PERIOD":"94.440","APOGEE":"500.002","PERIGEE":"482.951","DECAYED":"0"},{"COMMENT":"GENERATED VIA SPACETRACK.ORG API","ORIGINATOR":"18 SPCS","NORAD_CAT_ID":"43477","OBJECT_NAME":"GRACE-FO 2","OBJECT_TYPE":"PAYLOAD","CLASSIFICATION_TYPE":"U","INTLDES":"18047B","EPOCH":"2023-01-01 20:40:02","EPOCH_MICROSECONDS":"7840","MEAN_MOTION":"15.24772051","ECCENTRICITY":"0.0012366","INCLINATION":"88.989","RA_OF_ASC_NODE":"11.6549","ARG_OF_PERICENTER":"324.8658","MEAN_ANOMALY":"35.1773","EPHEMERIS_TYPE":"0","ELEMENT_SET_NO":"999","REV_AT_EPOCH":"25664","BSTAR":"0.00011299","MEAN_MOTION_DOT":"0.00002833","MEAN_MOTION_DDOT":"0","FILE":"3728952","TLE_LINE0":"0 GRACE-FO 2","TLE_LINE1":"1 43477U 18047B   23001.86113435  .00002833  00000-0  11299-3 0  9993","TLE_LINE2":"2 43477  88.9890  11.6549 0012366 324.8658  35.1773 15.24772051256642","OBJECT_ID":"2018-047B","OBJECT_NUMBER":"43477","SEMIMAJOR_AXIS":"6869.607","PERIOD":"94.440","APOGEE":"499.967","PERIGEE":"482.977","DECAYED":"0"},{"COMMENT":"GENERATED VIA SPACETRACK.ORG API","ORIGINATOR":"18 SPCS","NORAD_CAT_ID":"43477","OBJECT_NAME":"GRACE-FO 2","OBJECT_TYPE":"PAYLOAD","CLASSIFICATION_TYPE":"U","INTLDES":"18047B","EPOCH":"2023-01-02 10:50:35","EPOCH_MICROSECONDS":"297952","MEAN_MOTION":"15.24775577","ECCENTRICITY":"0.0012261","INCLINATION":"88.989","RA_OF_ASC_NODE":"11.5748","ARG_OF_PERICENTER":"322.2712","MEAN_ANOMALY":"37.7675","EPHEMERIS_TYPE":"0","ELEMENT_SET_NO":"999","REV_AT_EPOCH":"25673","BSTAR":"0.00011306","MEAN_MOTION_DOT":"0.00002835","MEAN_MOTION_DDOT":"0","FILE":"3729409","TLE_LINE0":"0 GRACE-FO 2","TLE_LINE1":"1 43477U 18047B   23002.45179743  .00002835  00000-0  11306-3 0  9994","TLE_LINE2":"2 43477  88.9890  11.5748 0012261 322.2712  37.7675 15.24775577256734","OBJECT_ID":"2018-047B","OBJECT_NUMBER":"43477","SEMIMAJOR_AXIS":"6869.596","PERIOD":"94.440","APOGEE":"499.884","PERIGEE":"483.039","DECAYED":"0"}]